<?xml version="1.0" encoding="UTF-8"?>
<ndm xmlns:xsi="http://www.w3.org/2001/XMLSchema-instance" xsi:noNamespaceSchemaLocation="https://sanaregistry.org/r/ndmxml_unqualified/ndmxml-2.0.0-master-2.0.xsd">
<omm id="CCSDS_OMM_VERS" version="2.0">
<header><CREATION_DATE/><ORIGINATOR/></header><body><segment><metadata><OBJECT_NAME>ORBCOMM FM05</OBJECT_NAME><OBJECT_ID>1997-084F</OBJECT_ID><CENTER_NAME>EARTH</CENTER_NAME><REF_FRAME>TEME</REF_FRAME><TIME_SYSTEM>UTC</TIME_SYSTEM><MEAN_ELEMENT_THEORY>SGP4</MEAN_ELEMENT_THEORY></metadata><data><meanElements><EPOCH>2024-08-04T14:19:26.709888</EPOCH><MEAN_MOTION>14.43190967</MEAN_MOTION><ECCENTRICITY>.0002909</ECCENTRICITY><INCLINATION>45.0155</INCLINATION><RA_OF_ASC_NODE>85.3289</RA_OF_ASC_NODE><ARG_OF_PERICENTER>79.1589</ARG_OF_PERICENTER><MEAN_ANOMALY>280.9589</MEAN_ANOMALY></meanElements><tleParameters><EPHEMERIS_TYPE>0</EPHEMERIS_TYPE><CLASSIFICATION_TYPE>U</CLASSIFICATION_TYPE><NORAD_CAT_ID>25117</NORAD_CAT_ID><ELEMENT_SET_NO>999</ELEMENT_SET_NO><REV_AT_EPOCH>39482</REV_AT_EPOCH><BSTAR>.10277E-2</BSTAR><MEAN_MOTION_DOT>.3345E-4</MEAN_MOTION_DOT><MEAN_MOTION_DDOT>0</MEAN_MOTION_DDOT></tleParameters></data></segment></body></omm>
<omm id="CCSDS_OMM_VERS" version="2.0">
<header><CREATION_DATE/><ORIGINATOR/></header><body><segment><metadata><OBJECT_NAME>ORBCOMM FM06</OBJECT_NAME><OBJECT_ID>1997-084G</OBJECT_ID><CENTER_NAME>EARTH</CENTER_NAME><REF_FRAME>TEME</REF_FRAME><TIME_SYSTEM>UTC</TIME_SYSTEM><MEAN_ELEMENT_THEORY>SGP4</MEAN_ELEMENT_THEORY></metadata><data><meanElements><EPOCH>2024-08-04T09:01:57.613728</EPOCH><MEAN_MOTION>14.43293020</MEAN_MOTION><ECCENTRICITY>.0002178</ECCENTRICITY><INCLINATION>45.0146</INCLINATION><RA_OF_ASC_NODE>86.4973</RA_OF_ASC_NODE><ARG_OF_PERICENTER>91.5347</ARG_OF_PERICENTER><MEAN_ANOMALY>78.0099</MEAN_ANOMALY></meanElements><tleParameters><EPHEMERIS_TYPE>0</EPHEMERIS_TYPE><CLASSIFICATION_TYPE>U</CLASSIFICATION_TYPE><NORAD_CAT_ID>25118</NORAD_CAT_ID><ELEMENT_SET_NO>999</ELEMENT_SET_NO><REV_AT_EPOCH>39570</REV_AT_EPOCH><BSTAR>.10915E-2</BSTAR><MEAN_MOTION_DOT>.357E-4</MEAN_MOTION_DOT><MEAN_MOTION_DDOT>0</MEAN_MOTION_DDOT></tleParameters></data></segment></body></omm>
<omm id="CCSDS_OMM_VERS" version="2.0">
<header><CREATION_DATE/><ORIGINATOR/></header><body><segment><metadata><OBJECT_NAME>ORBCOMM FM07</OBJECT_NAME><OBJECT_ID>1997-084H</OBJECT_ID><CENTER_NAME>EARTH</CENTER_NAME><REF_FRAME>TEME</REF_FRAME><TIME_SYSTEM>UTC</TIME_SYSTEM><MEAN_ELEMENT_THEORY>SGP4</MEAN_ELEMENT_THEORY></metadata><data><meanElements><EPOCH>2024-08-04T08:10:28.054272</EPOCH><MEAN_MOTION>14.43186535</MEAN_MOTION><ECCENTRICITY>.0003554</ECCENTRICITY><INCLINATION>45.0143</INCLINATION><RA_OF_ASC_NODE>87.2631</RA_OF_ASC_NODE><ARG_OF_PERICENTER>66.9915</ARG_OF_PERICENTER><MEAN_ANOMALY>293.1310</MEAN_ANOMALY></meanElements><tleParameters><EPHEMERIS_TYPE>0</EPHEMERIS_TYPE><CLASSIFICATION_TYPE>U</CLASSIFICATION_TYPE><NORAD_CAT_ID>25119</NORAD_CAT_ID><ELEMENT_SET_NO>999</ELEMENT_SET_NO><REV_AT_EPOCH>39569</REV_AT_EPOCH><BSTAR>.95394E-3</BSTAR><MEAN_MOTION_DOT>.3094E-4</MEAN_MOTION_DOT><MEAN_MOTION_DDOT>0</MEAN_MOTION_DDOT></tleParameters></data></segment></body></omm>
<omm id="CCSDS_OMM_VERS" version="2.0">
<header><CREATION_DATE/><ORIGINATOR/></header><body><segment><metadata><OBJECT_NAME>ORBCOMM FM03</OBJECT_NAME><OBJECT_ID>1998-007B</OBJECT_ID><CENTER_NAME>EARTH</CENTER_NAME><REF_FRAME>TEME</REF_FRAME><TIME_SYSTEM>UTC</TIME_SYSTEM><MEAN_ELEMENT_THEORY>SGP4</MEAN_ELEMENT_THEORY></metadata><data><meanElements><EPOCH>2024-08-04T13:28:19.162560</EPOCH><MEAN_MOTION>14.32541861</MEAN_MOTION><ECCENTRICITY>.0045491</ECCENTRICITY><INCLINATION>107.9711</INCLINATION><RA_OF_ASC_NODE>205.9360</RA_OF_ASC_NODE><ARG_OF_PERICENTER>81.2255</ARG_OF_PERICENTER><MEAN_ANOMALY>279.4031</MEAN_ANOMALY></meanElements><tleParameters><EPHEMERIS_TYPE>0</EPHEMERIS_TYPE><CLASSIFICATION_TYPE>U</CLASSIFICATION_TYPE><NORAD_CAT_ID>25158</NORAD_CAT_ID><ELEMENT_SET_NO>999</ELEMENT_SET_NO><REV_AT_EPOCH>37866</REV_AT_EPOCH><BSTAR>.12422E-2</BSTAR><MEAN_MOTION_DOT>.3284E-4</MEAN_MOTION_DOT><MEAN_MOTION_DDOT>0</MEAN_MOTION_DDOT></tleParameters></data></segment></body></omm>
<omm id="CCSDS_OMM_VERS" version="2.0">
<header><CREATION_DATE/><ORIGINATOR/></header><body><segment><metadata><OBJECT_NAME>ORBCOMM FM04</OBJECT_NAME><OBJECT_ID>1998-007C</OBJECT_ID><CENTER_NAME>EARTH</CENTER_NAME><REF_FRAME>TEME</REF_FRAME><TIME_SYSTEM>UTC</TIME_SYSTEM><MEAN_ELEMENT_THEORY>SGP4</MEAN_ELEMENT_THEORY></metadata><data><meanElements><EPOCH>2024-08-04T14:29:14.253216</EPOCH><MEAN_MOTION>14.32809066</MEAN_MOTION><ECCENTRICITY>.0041103</ECCENTRICITY><INCLINATION>107.9697</INCLINATION><RA_OF_ASC_NODE>209.0210</RA_OF_ASC_NODE><ARG_OF_PERICENTER>78.6658</ARG_OF_PERICENTER><MEAN_ANOMALY>281.9095</MEAN_ANOMALY></meanElements><tleParameters><EPHEMERIS_TYPE>0</EPHEMERIS_TYPE><CLASSIFICATION_TYPE>U</CLASSIFICATION_TYPE><NORAD_CAT_ID>25159</NORAD_CAT_ID><ELEMENT_SET_NO>999</ELEMENT_SET_NO><REV_AT_EPOCH>37884</REV_AT_EPOCH><BSTAR>.1058E-2</BSTAR><MEAN_MOTION_DOT>.2787E-4</MEAN_MOTION_DOT><MEAN_MOTION_DDOT>0</MEAN_MOTION_DDOT></tleParameters></data></segment></body></omm>
<omm id="CCSDS_OMM_VERS" version="2.0">
<header><CREATION_DATE/><ORIGINATOR/></header><body><segment><metadata><OBJECT_NAME>ORBCOMM FM17</OBJECT_NAME><OBJECT_ID>1998-046A</OBJECT_ID><CENTER_NAME>EARTH</CENTER_NAME><REF_FRAME>TEME</REF_FRAME><TIME_SYSTEM>UTC</TIME_SYSTEM><MEAN_ELEMENT_THEORY>SGP4</MEAN_ELEMENT_THEORY></metadata><data><meanElements><EPOCH>2024-08-04T13:45:22.961952</EPOCH><MEAN_MOTION>14.33450021</MEAN_MOTION><ECCENTRICITY>.0000304</ECCENTRICITY><INCLINATION>44.9956</INCLINATION><RA_OF_ASC_NODE>310.2168</RA_OF_ASC_NODE><ARG_OF_PERICENTER>145.6873</ARG_OF_PERICENTER><MEAN_ANOMALY>214.3993</MEAN_ANOMALY></meanElements><tleParameters><EPHEMERIS_TYPE>0</EPHEMERIS_TYPE><CLASSIFICATION_TYPE>U</CLASSIFICATION_TYPE><NORAD_CAT_ID>25413</NORAD_CAT_ID><ELEMENT_SET_NO>999</ELEMENT_SET_NO><REV_AT_EPOCH>35771</REV_AT_EPOCH><BSTAR>.67856E-3</BSTAR><MEAN_MOTION_DOT>.175E-4</MEAN_MOTION_DOT><MEAN_MOTION_DDOT>0</MEAN_MOTION_DDOT></tleParameters></data></segment></body></omm>
<omm id="CCSDS_OMM_VERS" version="2.0">
<header><CREATION_DATE/><ORIGINATOR/></header><body><segment><metadata><OBJECT_NAME>ORBCOMM FM18</OBJECT_NAME><OBJECT_ID>1998-046B</OBJECT_ID><CENTER_NAME>EARTH</CENTER_NAME><REF_FRAME>TEME</REF_FRAME><TIME_SYSTEM>UTC</TIME_SYSTEM><MEAN_ELEMENT_THEORY>SGP4</MEAN_ELEMENT_THEORY></metadata><data><meanElements><EPOCH>2024-08-04T11:14:14.687520</EPOCH><MEAN_MOTION>14.36311266</MEAN_MOTION><ECCENTRICITY>.0001831</ECCENTRICITY><INCLINATION>44.9912</INCLINATION><RA_OF_ASC_NODE>235.9418</RA_OF_ASC_NODE><ARG_OF_PERICENTER>151.0442</ARG_OF_PERICENTER><MEAN_ANOMALY>209.0507</MEAN_ANOMALY></meanElements><tleParameters><EPHEMERIS_TYPE>0</EPHEMERIS_TYPE><CLASSIFICATION_TYPE>U</CLASSIFICATION_TYPE><NORAD_CAT_ID>25414</NORAD_CAT_ID><ELEMENT_SET_NO>999</ELEMENT_SET_NO><REV_AT_EPOCH>35867</REV_AT_EPOCH><BSTAR>.8331E-3</BSTAR><MEAN_MOTION_DOT>.2317E-4</MEAN_MOTION_DOT><MEAN_MOTION_DDOT>0</MEAN_MOTION_DDOT></tleParameters></data></segment></body></omm>
<omm id="CCSDS_OMM_VERS" version="2.0">
<header><CREATION_DATE/><ORIGINATOR/></header><body><segment><metadata><OBJECT_NAME>ORBCOMM FM19</OBJECT_NAME><OBJECT_ID>1998-046C</OBJECT_ID><CENTER_NAME>EARTH</CENTER_NAME><REF_FRAME>TEME</REF_FRAME><TIME_SYSTEM>UTC</TIME_SYSTEM><MEAN_ELEMENT_THEORY>SGP4</MEAN_ELEMENT_THEORY></metadata><data><meanElements><EPOCH>2024-08-04T12:57:23.465088</EPOCH><MEAN_MOTION>14.36145899</MEAN_MOTION><ECCENTRICITY>.0000581</ECCENTRICITY><INCLINATION>44.9924</INCLINATION><RA_OF_ASC_NODE>237.1314</RA_OF_ASC_NODE><ARG_OF_PERICENTER>166.2610</ARG_OF_PERICENTER><MEAN_ANOMALY>328.2774</MEAN_ANOMALY></meanElements><tleParameters><EPHEMERIS_TYPE>0</EPHEMERIS_TYPE><CLASSIFICATION_TYPE>U</CLASSIFICATION_TYPE><NORAD_CAT_ID>25415</NORAD_CAT_ID><ELEMENT_SET_NO>999</ELEMENT_SET_NO><REV_AT_EPOCH>35864</REV_AT_EPOCH><BSTAR>.88942E-3</BSTAR><MEAN_MOTION_DOT>.2475E-4</MEAN_MOTION_DOT><MEAN_MOTION_DDOT>0</MEAN_MOTION_DDOT></tleParameters></data></segment></body></omm>

</ndm>
