ORBCOMM FM05            
1 25117U 97084F   24217.59683692  .00003345  00000+0  10277-2 0  9991
2 25117  45.0155  85.3289 0002909  79.1589 280.9589 14.43190967394823
ORBCOMM FM06            
1 25118U 97084G   24217.37636127  .00003570  00000+0  10915-2 0  9998
2 25118  45.0146  86.4973 0002178  91.5347  78.0099 14.43293020395708
ORBCOMM FM07            
1 25119U 97084H   24217.34060248  .00003094  00000+0  95394-3 0  9997
2 25119  45.0143  87.2631 0003554  66.9915 293.1310 14.43186535395698
ORBCOMM FM03            
1 25158U 98007B   24217.56133290  .00003284  00000+0  12422-2 0  9999
2 25158 107.9711 205.9360 0045491  81.2255 279.4031 14.32541861378661
ORBCOMM FM04            
1 25159U 98007C   24217.60363719  .00002787  00000+0  10580-2 0  9996
2 25159 107.9697 209.0210 0041103  78.6658 281.9095 14.32809066378849
ORBCOMM FM17            
1 25413U 98046A   24217.57318243  .00001750  00000+0  67856-3 0  9998
2 25413  44.9956 310.2168 0000304 145.6873 214.3993 14.33450021357713
ORBCOMM FM18            
1 25414U 98046B   24217.46822555  .00002317  00000+0  83310-3 0  9996
2 25414  44.9912 235.9418 0001831 151.0442 209.0507 14.36311266358674
ORBCOMM FM19            
1 25415U 98046C   24217.53985492  .00002475  00000+0  88942-3 0  9996
2 25415  44.9924 237.1314 0000581 166.2610 328.2774 14.36145899358647
